294P/LINEAR,e,17.7429,309.5998,237.5874,3.190258,0.1729678,0.60095775,9.3067,10/04.0/2025,2000,g 15.5,4.0
# From MPEC 2025-ST8
295P/LINEAR,e,21.0866,7.3784,73.0560,5.297714,0.0808298,0.61760737,336.4184,10/04.0/2025,2000,g 12.0,4.0
# From MPEC 2021-N06
296P/Garradd,e,25.3577,263.5025,350.4289,3.466763,0.1526926,0.48677592,278.7154,10/04.0/2025,2000,g 14.0,4.0
# From MPC102956
297P/Beshore,e,11.2267,92.1714,142.5532,3.572562,0.1459602,0.28123723,250.5542,10/04.0/2025,2000,g 15.0,4.0
# From MPC114609
298P/Christensen,e,7.8728,52.7835,100.6292,3.587925,0.1450237,0.38703875,268.8255,10/04.0/2025,2000,g 15.0,4.0
# From MPEC 2025-SH3
299P/Catalina-PANSTARRS,e,10.4689,271.5798,323.5889,4.388181,0.1072204,0.28094328,55.9808,10/04.0/2025,2000,g 11.5,4.0
# From MPEC 2023-VM5
300P/Catalina,e,5.6764,95.6205,222.8739,2.696047,0.2226449,0.69229114,201.9364,10/04.0/2025,2000,g 16.0,4.0
# From MPC 89014
301P/LINEAR-NEAT,e,10.3288,351.0625,193.4186,5.753214,0.0714230,0.58636323,291.7289,10/04.0/2025,2000,g 13.0,4.0
# From MPEC 2025-T80
302P/Lemmon-PANSTARRS,e,6.0357,121.7169,208.6151,4.266411,0.1118433,0.22918324,23.3373,10/04.0/2025,2000,g 12.5,4.0
# From MPEC 2025-R69
303P/NEAT,e,7.0164,347.9072,357.0581,5.038946,0.0871354,0.51015833,347.8943,10/04.0/2025,2000,g 13.5,4.0
# From MPEC 2022-K19
304P/Ory,e,2.6055,58.9357,335.2868,3.149261,0.1763564,0.60080119,330.8640,10/04.0/2025,2000,g 16.5,4.0
# From MPC182890
305P/Skiff,e,11.6700,240.0871,147.3869,4.633922,0.0988055,0.69405053,31.7049,10/04.0/2025,2000,g 18.0,4.0
# From MPEC 2025-T80
306P/LINEAR,e,8.3018,341.3399,0.9109,3.123914,0.1785071,0.59251148,11.3093,10/04.0/2025,2000,g 19.0,4.0
# From MPC 92278
307P/LINEAR,e,4.4342,158.0998,222.2630,5.788155,0.0707773,0.67487353,278.2188,10/04.0/2025,2000,g 15.0,4.0
# From MPEC 2022-C56
308P/Lagerkvist-Carsenty,e,4.8516,63.1002,333.7640,6.601931,0.0581029,0.36396206,220.4755,10/04.0/2025,2000,g 13.0,2.0
# From MPC184419
309P/LINEAR,e,17.0181,10.1389,49.9280,4.374983,0.1077059,0.61815903,59.6770,10/04.0/2025,2000,g 15.0,4.0
# From MPC182891
310P/Hill,e,13.1199,8.8839,31.5161,4.180797,0.1152963,0.42198208,82.0846,10/04.0/2025,2000,g 13.5,4.0
# From MPC184419
311P/PANSTARRS,e,4.9714,279.1680,144.3129,2.188799,0.3043655,0.11543860,195.1186,10/04.0/2025,2000,g 17.0,4.0
# From MPEC 2024-NE4
312P/NEAT,e,19.7455,144.6299,207.6916,3.472748,0.1522980,0.42658436,279.6594,10/04.0/2025,2000,g 16.0,4.0
# From MPEC 2025-SI6
313P/Gibbs,e,10.9811,105.9256,254.9966,3.162817,0.1752238,0.23435789,349.5253,10/04.0/2025,2000,g 15.0,4.0
# From MPC105243
314P/Montani,e,3.9921,267.6233,213.8788,7.248514,0.0505046,0.41872494,165.4670,10/04.0/2025,2000,g  9.5,4.0
# From MPEC 2025-SH3
315P/LONEOS,e,17.7362,68.6287,65.9453,4.935346,0.0898934,0.52219281,290.4701,10/04.0/2025,2000,g 11.0,4.0
# From MPC182891
316P/LONEOS-Christensen,e,9.8678,245.8434,186.6418,4.400985,0.1067528,0.15571430,39.2178,10/04.0/2025,2000,g 13.5,4.0
# From MPEC 2020-C98
317P/WISE,e,11.9748,275.4720,334.8880,2.959750,0.1935626,0.57205247,354.8004,10/04.0/2025,2000,g 17.5,4.0
# From MPC102103
318P/McNaught-Hartley,e,17.8607,35.6198,313.2869,7.515916,0.0478334,0.67301197,173.9005,10/04.0/2025,2000,g  8.5,6.0
# From MPC184420
319P/Catalina-McNaught,e,15.0980,111.3671,203.5783,3.562123,0.1466023,0.66661626,188.1755,10/04.0/2025,2000,g 15.0,4.0
# From MPC 96281
320P/McNaught,e,4.9028,295.9402,0.7581,3.096095,0.1809183,0.68495971,311.7250,10/04.0/2025,2000,g 20.5,4.0
# From MPC105243
321P/SOHO,e,20.0556,165.0261,172.7395,2.422033,0.2614773,0.98100464,0.0000,08/03.2212/2027,2000,g 20.0,4.0
# From MPC102103
322P/SOHO,e,11.4423,351.2986,57.1227,2.508690,0.2480467,0.97990724,0.0000,08/11.5361/2027,2000,g 19.0,4.0
# From MPC182891
323P/SOHO,e,5.2191,323.9227,353.3411,2.440396,0.2585315,0.98348459,0.0000,03/14.2433/2025,2000,g 20.0,4.0
# From MPEC 2024-F21
323P-B/SOHO,e,5.4627,323.4650,353.9690,2.890192,0.2005922,0.98613821,0.0000,12/16.2349/2025,2000,g 26.0,4.0
# From MPEC 2024-F21
323P-C/SOHO,e,5.3441,324.1665,353.2257,2.612456,0.2334160,0.98479395,0.0000,04/07.1101/2025,2000,g 27.0,4.0
# From MPEC 2021-W31
324P/LaSagra,e,21.3994,270.5687,57.3844,3.097521,0.1807934,0.15275376,292.0835,10/04.0/2025,2000,g 13.0,4.0
# From MPEC 2024-LE0
325P/Yang-Gao,e,16.8419,256.8620,344.8881,3.550402,0.1473289,0.58677642,190.1821,10/04.0/2025,2000,g 14.0,4.0
# From MPEC 2024-LE0
326P/Hill,e,2.4738,99.7610,277.8995,4.059878,0.1204854,0.32063124,77.8512,10/04.0/2025,2000,g 13.5,4.0
# From MPEC 2024-M41
327P/VanNess,e,36.2266,173.9989,185.0361,3.563202,0.1465357,0.56242026,165.3386,10/04.0/2025,2000,g 16.0,4.0
# From MPEC 2024-YC7
328P/LONEOS-Tucker,e,17.6910,341.5150,30.6474,4.188049,0.1149970,0.55324319,49.8053,10/04.0/2025,2000,g 14.5,4.0
# From MPC101101
329P/LINEAR-Catalina,e,21.7186,87.6872,343.6133,5.181104,0.0835739,0.67886739,299.6884,10/04.0/2025,2000,g 13.5,4.0
# From MPEC 2023-J29
330P/Catalina,e,15.7419,293.0852,188.8465,6.614420,0.0579384,0.55072469,192.3549,10/04.0/2025,2000,g 12.0,4.0
# From MPEC 2025-R69
331P/Gibbs,e,9.7410,216.7418,185.7141,3.002799,0.1894151,0.04142368,344.4392,10/04.0/2025,2000,g 12.0,4.0
# From MPEC 2016-K18
332P/Ikeya-Murakami,e,9.3864,3.7551,152.3008,3.085979,0.1818087,0.48993914,274.0661,10/04.0/2025,2000,g 18.0,4.0
# From MPEC 2016-K18
332P-A/Ikeya-Murakami,e,9.3860,152.3167,3.7404,3.085956,0.1818107,0.48994708,274.0648,10/04.0/2025,2000,g 18.0,4.0
# From MPEC 2016-EI8
332P-B/Ikeya-Murakami,e,9.3805,3.8028,152.3711,3.082329,0.1821317,0.48970701,359.9699,03/17.0/2016,2000,g 19.0,4.0
# From MPEC 2016-K18
332P-C/Ikeya-Murakami,e,9.3851,152.3080,3.7408,3.085922,0.1818137,0.48995259,274.0835,10/04.0/2025,2000,g 16.5,4.0
# From MPEC 2016-ED0
332P-D/Ikeya-Murakami,e,9.3761,3.7923,152.4393,3.081138,0.1822373,0.48977814,359.9486,03/17.0/2016,2000,g 19.0,4.0
# From MPEC 2016-ED0
332P-E/Ikeya-Murakami,e,9.3774,3.8228,152.2825,3.079877,0.1823493,0.48922008,359.9889,03/17.0/2016,2000,g 21.0,4.0
# From MPEC 2016-ED0
332P-F/Ikeya-Murakami,e,9.5293,3.4757,152.8203,3.163214,0.1751908,0.49918860,359.8501,03/17.0/2016,2000,g 21.0,4.0
# From MPEC 2016-ED0
332P-G/Ikeya-Murakami,e,9.2523,3.6955,154.4000,3.050519,0.1849880,0.49200362,359.9006,03/19.0/2016,2000,g 19.0,4.0
# From MPC100285
332P-H/Ikeya-Murakami,e,9.3856,152.3086,3.7406,3.086102,0.1817978,0.48998866,273.9940,10/04.0/2025,2000,g 19.0,4.0
# From MPEC 2016-ED0
332P-I/Ikeya-Murakami,e,9.3791,3.8048,152.3297,3.081767,0.1821815,0.48955490,359.9360,03/17.0/2016,2000,g 20.5,2.0
# From MPEC 2016-EI8
332P-J/Ikeya-Murakami,e,9.4296,3.6729,152.7712,3.115165,0.1792596,0.49429435,359.8613,03/17.0/2016,2000,g 22.5,2.0
# From MPEC 2025-SH3
333P/LINEAR,e,132.0237,115.7055,26.0291,4.221182,0.1136457,0.73629126,35.0822,10/04.0/2025,2000,g 15.0,4.0
# From MPEC 2023-J29
334P/NEAT,e,20.3628,90.3246,90.0931,6.823136,0.0553004,0.35221835,168.2790,10/04.0/2025,2000,g 10.5,4.0
# From MPEC 2023-M14
335P/Gibbs,e,7.2989,330.7872,162.3298,3.577052,0.1456855,0.54697067,167.2880,10/04.0/2025,2000,g 17.0,4.0
# From MPC105244
336P/McNaught,e,17.9091,298.1591,308.8519,5.029883,0.0873710,0.44786340,276.8306,10/04.0/2025,2000,g 13.5,4.0
# From MPEC 2024-A43
337P/WISE,e,17.1566,101.9731,166.4300,3.370751,0.1592627,0.47031218,192.4386,10/04.0/2025,2000,g 17.0,4.0
# From MPC182891
338P/McNaught,e,25.3790,9.7010,4.6384,3.894928,0.1282198,0.41285513,54.7159,10/04.0/2025,2000,g 12.0,4.0
# From MPC101101
339P/Gibbs,e,5.7355,27.4519,172.6717,3.698168,0.1385875,0.63591351,106.0126,10/04.0/2025,2000,g 17.0,4.0
# From MPC133426
340P/Boattini,e,2.0790,291.6598,36.0603,4.246155,0.1126446,0.27983138,4.0283,10/04.0/2025,2000,g 13.0,4.0
# From MPEC 2025-S35
341P/Gibbs,e,3.7965,29.9522,312.3675,4.284324,0.1111426,0.41496595,18.2584,10/04.0/2025,2000,g 12.5,4.0
# From MPC101101
342P/SOHO,e,11.6868,73.2986,27.6630,3.040581,0.1858957,0.98298928,0.0000,02/07.7295/2027,2000,g 20.0,4.0
# From MPEC 2024-PC5
343P/NEAT-LONEOS,e,5.5975,257.0550,137.6087,5.458151,0.0772922,0.58467937,244.6062,10/04.0/2025,2000,g 14.0,4.0
# From MPEC 2023-J29
344P/Read,e,3.4997,273.1014,140.6436,4.854103,0.0921596,0.42369008,299.2724,10/04.0/2025,2000,g 13.0,4.0
# From MPEC 2024-TP3
345P/LINEAR,e,2.7279,154.4945,196.8752,4.034107,0.1216418,0.22148846,48.4713,10/04.0/2025,2000,g 12.0,4.0
# From MPEC 2025-R69
346P/Catalina,e,22.2193,102.4578,336.0942,4.466974,0.1043960,0.50388536,328.5465,10/04.0/2025,2000,g 14.0,4.0
# From MPEC 2024-RQ6
347P/PANSTARRS,e,11.7654,260.9861,98.0544,3.598989,0.1443555,0.38706178,116.6172,10/04.0/2025,2000,g 15.0,4.0
# From MPEC 2022-ED3
348P/PANSTARRS,e,17.7442,312.9109,135.7951,3.151378,0.1761787,0.30752875,233.9963,10/04.0/2025,2000,g 14.0,4.0
# From MPEC 2024-LE0
349P/Lemmon,e,5.4896,331.7383,255.7249,3.577574,0.1456536,0.29862125,72.1149,10/04.0/2025,2000,g 14.0,4.0
# From MPC184420
350P/McNaught,e,7.3655,65.2954,140.0709,4.081194,0.1195427,0.09480910,340.3354,10/04.0/2025,2000,g 14.0,4.0
# From MPEC 2025-T80
351P/Wiegert-PANSTARRS,e,12.7784,283.3840,352.5498,4.440067,0.1053464,0.29465934,20.2165,10/04.0/2025,2000,g 12.5,4.0
# From MPEC 2023-J29
352P/Skiff,e,21.0003,28.0633,309.3528,6.656441,0.0573906,0.61574153,173.9201,10/04.0/2025,2000,g 11.5,4.0
# From MPEC 2025-R69
353P/McNaught,e,28.4098,121.4574,230.5343,4.170539,0.1157219,0.46969883,328.7073,10/04.0/2025,2000,g 14.5,4.0
# From MPEC 2024-EF7
354P/LINEAR,e,5.2510,320.0560,132.9639,2.290293,0.2843593,0.12447075,204.9120,10/04.0/2025,2000,g 15.5,4.0
# From MPEC 2023-CD7
355P/LINEAR-NEAT,e,11.0461,51.4219,336.2523,3.466746,0.1526937,0.50791129,84.1045,10/04.0/2025,2000,g 15.5,2.0
# From MPEC 2025-S35
356P/WISE,e,9.6396,160.7450,226.2839,4.151494,0.1165192,0.35577683,330.7068,10/04.0/2025,2000,g 14.0,4.0
# From MPC114609
357P/Hill,e,6.3120,44.5624,1.5223,4.454559,0.1048328,0.43595267,280.7725,10/04.0/2025,2000,g 15.5,4.0
# From MPEC 2024-EF7
358P/PANSTARRS,e,11.0667,85.6658,299.3105,3.145464,0.1766758,0.23945070,122.7196,10/04.0/2025,2000,g 18.0,4.0
# From MPC110086
